KAITUO 1B               
1 40912U 15049P   17285.76695766  .00001619  00000-0  82638-4 0  9998
2 40912  97.4524 291.7225 0016493 146.9333 299.4463 15.18026198114126
TIANWANG 1C (TW-1C)     
1 40926U 15051B   17285.67683330  .00009202  00000-0  19795-3 0  9999
2 40926  97.2178 324.3896 0013303 100.8408  48.5090 15.44768931115048
TIANWANG 1B (TW-1B)     
1 40927U 15051C   17285.70098122  .00009019  00000-0  20168-3 0  9995
2 40927  97.2269 324.3777 0012994 109.1932  31.6453 15.43631074114981
TIANWANG 1A (TW-1A)     
1 40928U 15051D   17285.83277302  .00004174  00000-0  11698-3 0  9994
2 40928  97.2164 319.5262 0014055 128.9537 316.2878 15.37059315114765
LAPAN-A2 (IO-86)        
1 40931U 15052B   17285.84292797  .00000807  00000-0  23445-4 0  9998
2 40931   5.9959 113.8056 0012806 108.8040 251.3550 14.76548524110388
LQSAT                   
1 40958U 15057A   17285.83603555  .00000060  00000-0  17119-4 0  9991
2 40958  97.9691 359.0430 0019515  52.1591 308.1368 14.72991979108430
CHUBUSAT-2              
1 41338U 16012B   17285.75435103  .00000672  00000-0  46134-4 0  9997
2 41338  31.0031  85.5397 0013741 143.7051 216.4519 14.99832806 90651
CHUBUSAT-3              
1 41339U 16012C   17285.79977598  .00000507  00000-0  32971-4 0  9992
2 41339  31.0096  84.2093 0013386 149.9252 210.2164 15.00030388 90643
OUFTI-1                 
1 41458U 16025C   17285.78408598  .00001762  00000-0  97933-4 0  9999
2 41458  98.1751 330.0633 0170862 256.2757 101.9393 15.03723095 80246
E-ST@R-II               
1 41459U 16025D   17285.81867748  .00001357  00000-0  76584-4 0  9999
2 41459  98.1707 330.0279 0172593 256.5379 101.6567 15.03508316 80247
AAUSAT 4                
1 41460U 16025E   17285.67405846  .00003153  00000-0  17072-3 0  9994
2 41460  98.1659 330.0593 0164614 254.8198 103.4767 15.04599937 80252
NUSAT 1 (LO-87)         
1 41557U 16033B   17285.75283221  .00003084  00000-0  11713-3 0  9999
2 41557  97.4559   5.2527 0012828 317.1074  42.9164 15.27521783 76378
BEESAT-4                
1 41619U 16040W   17285.10070922  .00003066  00000-0  14014-3 0  9994
2 41619  97.4497 346.3095 0012445  27.0632 333.1250 15.21251569 60368
PRATHAM                 
1 41783U 16059A   17285.74118428  .00000114  00000-0  31496-4 0  9995
2 41783  98.1542 345.8198 0034370 150.4111 209.9045 14.62867597 55781
ALSAT 1N                
1 41789U 16059G   17285.70061657  .00000161  00000-0  39700-4 0  9996
2 41789  98.1543 346.5084 0029355 143.5793 216.7412 14.64086499 55809
NAYIF-1 (EO-88)         
1 42017U 17008BX  17285.76324692  .00003492  00000-0  14923-3 0  9992
2 42017  97.4825 346.9431 0007197 156.7051 203.4513 15.23509554 36387
LILACSAT-1              
1 42725U 98067ME  17285.77258275  .00028645  00000-0  36814-3 0  9996
2 42725  51.6384 169.9226 0005588  42.5964 317.5461 15.58840767 21797
MAX VALIER SAT          
1 42778U 17036P   17285.22887055  .00002158  00000-0  10124-3 0  9992
2 42778  97.4392 343.6325 0012026 211.3663 148.6856 15.20678343 16816
